{
  "links": {
    "self": "http://api.nasa.gov/neo/rest/v1/neo/54390823?api_key=3hMFcVGG3bILl6a9mBxBdjkWU71phGNDfEmA4fl4"
  },
  "id": "54390823",
  "neo_reference_id": "54390823",
  "name": "(2023 TT)",
  "designation": "2023 TT",
  "nasa_jpl_url": "https://ssd.jpl.nasa.gov/tools/sbdb_lookup.html#/?sstr=54390823",
  "absolute_magnitude_h": 24.07,
  "estimated_diameter": {
    "kilometers": {
      "estimated_diameter_min": 0.0407901194,
      "estimated_diameter_max": 0.0912094798
    },
    "meters": {
      "estimated_diameter_min": 40.7901194028,
      "estimated_diameter_max": 91.209479795
    },
    "miles": {
      "estimated_diameter_min": 0.0253457973,
      "estimated_diameter_max": 0.0566749257
    },
    "feet": {
      "estimated_diameter_min": 133.8258553415,
      "estimated_diameter_max": 299.2437096906
    }
  },
  "is_potentially_hazardous_asteroid": false,
  "close_approach_data": [
    {
      "close_approach_date": "2019-10-28",
      "close_approach_date_full": "2019-Oct-28 17:29",
      "epoch_date_close_approach": 1572283740000,
      "relative_velocity": {
        "kilometers_per_second": "18.378501406",
        "kilometers_per_hour": "66162.6050617465",
        "miles_per_hour": "41110.8697951724"
      },
      "miss_distance": {
        "astronomical": "0.4475215127",
        "lunar": "174.0858684403",
        "kilometers": "66948265.079097949",
        "miles": "41599722.9153677362"
      },
      "orbiting_body": "Earth"
    },
    {
      "close_approach_date": "2021-10-20",
      "close_approach_date_full": "2021-Oct-20 10:15",
      "epoch_date_close_approach": 1634724900000,
      "relative_velocity": {
        "kilometers_per_second": "16.130170899",
        "kilometers_per_hour": "58068.6152362272",
        "miles_per_hour": "36081.5792838657"
      },
      "miss_distance": {
        "astronomical": "0.2467747956",
        "lunar": "95.9953954884",
        "kilometers": "36916983.791445372",
        "miles": "22939150.0254832536"
      },
      "orbiting_body": "Earth"
    },
    {
      "close_approach_date": "2023-10-12",
      "close_approach_date_full": "2023-Oct-12 22:18",
      "epoch_date_close_approach": 1697149080000,
      "relative_velocity": {
        "kilometers_per_second": "15.6800544375",
        "kilometers_per_hour": "56448.1959750173",
        "miles_per_hour": "35074.7137712545"
      },
      "miss_distance": {
        "astronomical": "0.0736748297",
        "lunar": "28.6595087533",
        "kilometers": "11021597.595732739",
        "miles": "6848503.1766762382"
      },
      "orbiting_body": "Earth"
    },
    {
      "close_approach_date": "2025-10-04",
      "close_approach_date_full": "2025-Oct-04 07:04",
      "epoch_date_close_approach": 1759561440000,
      "relative_velocity": {
        "kilometers_per_second": "17.0960093943",
        "kilometers_per_hour": "61545.6338194818",
        "miles_per_hour": "38242.0634141108"
      },
      "miss_distance": {
        "astronomical": "0.1725576599",
        "lunar": "67.1249297011",
        "kilometers": "25814258.373224413",
        "miles": "16040236.3574783794"
      },
      "orbiting_body": "Earth"
    },
    {
      "close_approach_date": "2027-09-26",
      "close_approach_date_full": "2027-Sep-26 03:45",
      "epoch_date_close_approach": 1821930300000,
      "relative_velocity": {
        "kilometers_per_second": "20.07482896",
        "kilometers_per_hour": "72269.3842558333",
        "miles_per_hour": "44905.3849005204"
      },
      "miss_distance": {
        "astronomical": "0.36621799",
        "lunar": "142.45879811",
        "kilometers": "54785431.2596813",
        "miles": "34042088.43214994"
      },
      "orbiting_body": "Earth"
    }
  ],
  "orbital_data": {
    "orbit_id": "5",
    "orbit_determination_date": "2023-10-19 07:42:03",
    "first_observation_date": "2023-10-04",
    "last_observation_date": "2023-10-18",
    "data_arc_in_days": 14,
    "observations_used": 36,
    "orbit_uncertainty": "8",
    "minimum_orbit_intersection": ".0638187",
    "jupiter_tisserand_invariant": "4.226",
    "epoch_osculation": "2460225.5",
    "eccentricity": ".3341940264561563",
    "semi_major_axis": "1.57086567760431",
    "inclination": "28.12837434225658",
    "ascending_node_longitude": "196.5416803462035",
    "orbital_period": "719.1293316457354",
    "perihelion_distance": "1.045891751783947",
    "perihelion_argument": "200.8961969594783",
    "aphelion_distance": "2.095839603424672",
    "perihelion_time": "2460249.741301146544",
    "mean_anomaly": "347.864674643733",
    "mean_motion": ".5006053628436153",
    "equinox": "J2000",
    "orbit_class": {
      "orbit_class_type": "AMO",
      "orbit_class_description": "Near-Earth asteroid orbits similar to that of 1221 Amor",
      "orbit_class_range": "1.017 AU < q (perihelion) < 1.3 AU"
    }
  },
  "is_sentry_object": false
}